QIANFAN-65              
1 62795U 25016L   25240.59575124  .00000100  00000+0  13718-3 0  9997
2 62795  88.9789 114.0396 0012409 295.5305  64.4563 13.50965636 32916
QIANFAN-66              
1 62796U 25016M   25240.55043548  .00000096  00000+0  12958-3 0  9993
2 62796  88.9809 113.9935 0013431 290.3286  69.6421 13.50960812 32959
QIANFAN-67              
1 62797U 25016N   25240.55451499  .00000098  00000+0  13263-3 0  9994
2 62797  88.9799 114.0290 0013555 297.9639  62.0140 13.50969470 32927
QIANFAN-68              
1 62798U 25016P   25240.55861447  .00000109  00000+0  15077-3 0  9991
2 62798  88.9802 114.0729 0014142 295.8127  64.1564 13.50966986 32902
QIANFAN-69              
1 62799U 25016Q   25240.56275471  .00000098  00000+0  13402-3 0  9996
2 62799  88.9781 113.9619 0014338 296.8290  63.1394 13.50962438 32946
QIANFAN-70              
1 62800U 25016R   25240.57922449  .00000106  00000+0  14504-3 0  9998
2 62800  88.9802 114.0761 0013722 286.2421  73.7220 13.50966392 32902
QIANFAN-71              
1 62801U 25016S   25240.57519032  .00000101  00000+0  13739-3 0  9993
2 62801  88.9796 114.0626 0014340 300.7205  59.2533 13.50966071 32904
QIANFAN-72              
1 62802U 25016T   25240.57099783  .00000103  00000+0  14154-3 0  9994
2 62802  88.9785 114.0818 0017905 306.6507  53.2998 13.50961500 32895
